OBJECT_NAME,OBJECT_ID,EPOCH,MEAN_MOTION,ECCENTRICITY,INCLINATION,RA_OF_ASC_NODE,ARG_OF_PERICENTER,MEAN_ANOMALY,EPHEMERIS_TYPE,CLASSIFICATION_TYPE,NORAD_CAT_ID,ELEMENT_SET_NO,REV_AT_EPOCH,BSTAR,MEAN_MOTION_DOT,MEAN_MOTION_DDOT
EUTELSAT 53A,2014-064A,2026-06-05T05:12:51.010848,1.00272198,.00007222,0.0152,293.5804,230.6889,220.5970,0,U,40277,999,4144,0,.11E-5,0
GSAT-16,2014-078A,2026-06-05T05:13:20.963136,1.00271335,.00079128,0.0605,94.4167,349.6529,302.9954,0,U,40332,999,4198,0,.97E-6,0
DIRECTV 14,2014-078B,2026-06-04T21:38:42.269568,1.00272349,.00002556,0.0095,324.1263,199.1564,315.5074,0,U,40333,999,4192,0,-.113E-5,0
ASTRA 2G,2014-089A,2026-06-05T06:48:25.943040,1.00269956,.00051841,0.0482,5.9232,53.0411,325.0642,0,U,40364,999,4184,0,.162E-5,0
MUOS-3,2015-002A,2026-06-05T01:28:04.197216,1.00272247,.00515059,4.4984,43.4727,178.7076,37.8964,0,U,40374,999,4146,0,-.117E-5,0
INMARSAT 5-F2,2015-005A,2026-06-04T11:35:22.400160,1.00273154,.000064,0.0181,349.5743,195.3976,186.7891,0,U,40384,999,4086,0,-.273E-5,0
ABS-3A,2015-010A,2026-06-04T15:15:35.584128,1.00270386,.00019962,0.0206,68.2195,318.0086,92.7592,0,U,40424,999,4125,0,-.15E-6,0
EUTELSAT 115 WEST B,2015-010B,2026-06-04T14:45:59.707296,1.00265549,.00006344,0.0091,147.2790,161.7662,50.6136,0,U,40425,999,4126,0,-.12E-6,0
EXPRESS-AM7,2015-012A,2026-06-05T06:51:48.119904,1.00272587,.00033252,0.0119,35.8333,44.7241,316.1050,0,U,40505,999,4088,0,.163E-5,0
BEIDOU-3S IGSO-1S,2015-019A,2026-06-04T20:49:21.821952,1.00253760,.003852,49.2196,295.6097,191.1886,171.3228,0,U,40549,999,4095,0,-.162E-5,0
THOR 7,2015-022A,2026-06-05T04:57:29.981664,1.00272458,.00027811,0.0081,325.4572,109.4728,252.4429,0,U,40613,999,4069,0,.4E-7,0
TURKMENALEM52E/MONACOSAT,2015-023A,2026-06-05T05:12:28.546848,1.00272193,.00031452,0.0421,80.1397,352.0216,311.6225,0,U,40617,999,4072,0,.116E-5,0
DIRECTV 15,2015-026A,2026-06-04T23:20:23.925696,1.00272632,.00001275,0.0173,7.9959,267.6092,225.0151,0,U,40663,999,4034,0,-.9E-6,0
SKY MEXICO-1,2015-026B,2026-06-05T04:35:12.285024,1.00272813,.00023112,0.0161,8.7312,81.2136,153.6857,0,U,40664,999,4033,0,-.222E-5,0
METEOSAT-11 (MSG-4),2015-034A,2026-06-05T06:43:03.957024,1.00276593,.00016515,3.1726,71.1753,4.0129,288.6651,0,U,40732,999,709,0,.75E-6,0
STAR ONE C4,2015-034B,2026-06-04T16:40:52.732992,1.00270772,.00026076,0.0210,346.4517,80.0103,6.9016,0,U,40733,999,3988,0,-.253E-5,0
WGS F7 (USA 263),2015-036A,2026-06-04T17:20:38.904864,1.00271153,.0000155,0.0027,357.1446,343.1865,347.9774,0,U,40746,999,3974,0,.3E-6,0
INTELSAT 34 (IS-34),2015-039A,2026-06-04T21:51:11.073312,1.00269697,.00002757,0.0092,325.9423,62.8751,136.8315,0,U,40874,999,3951,0,-.273E-5,0
EUTELSAT 8 WEST B,2015-039B,2026-06-04T22:04:46.767936,1.00272149,.0003859,0.0642,348.2503,82.5578,145.7544,0,U,40875,999,3953,0,-.53E-6,0
GSAT-6,2015-041A,2026-06-05T03:38:32.514144,1.00271969,.00033702,1.8893,82.7370,347.2665,320.7403,0,U,40880,999,3947,0,-.148E-5,0
INMARSAT 5-F3,2015-042A,2026-06-05T05:48:57.451968,1.00271480,.00004744,0.0172,354.6529,73.2293,92.6694,0,U,40882,999,3945,0,.63E-6,0
MUOS-4,2015-044A,2026-06-05T05:15:38.798784,1.00272432,.00597063,4.3071,42.1662,4.6690,0.7625,0,U,40887,999,3944,0,-.82E-6,0
TJS-1,2015-046A,2026-06-05T05:41:58.121664,1.00273252,.00058976,0.2920,85.0029,353.0149,56.1925,0,U,40892,999,3945,0,-.143E-5,0
BEIDOU-3S IGSO-2S,2015-053A,2026-06-04T18:27:21.818592,1.00262689,.00649525,49.2418,258.9308,192.1222,174.7728,0,U,40938,999,3923,0,-.132E-5,0
SKY MUSTER 1 (NBN1A),2015-054A,2026-06-04T17:30:05.657760,1.00270772,.00019387,0.0228,337.7484,115.9253,202.2548,0,U,40940,999,3913,0,0,0
ARSAT 2,2015-054B,2026-06-05T04:34:28.703136,1.00271392,.00022326,0.0403,64.6689,359.1184,177.4731,0,U,40941,999,3918,0,-.213E-5,0
MORELOS 3,2015-056A,2026-06-05T06:15:24.187968,1.00270947,.00017512,3.1776,14.7648,350.8956,228.7746,0,U,40946,999,3916,0,-.32E-6,0
APSTAR-9,2015-059A,2026-06-05T07:20:51.015264,1.00271640,.00021209,0.0159,339.1019,198.9449,327.9278,0,U,40982,999,3900,0,-.253E-5,0
TURKSAT 4B,2015-060A,2026-06-05T05:11:58.593696,1.00275728,.00024129,0.0181,340.9693,93.1984,307.5092,0,U,40984,999,3897,0,.126E-5,0
